NORAD_CAT_ID,OBJECT_NAME,OBJECT_TYPE,EPOCH,MEAN_MOTION,ECCENTRICITY,INCLINATION,RA_OF_ASC_NODE,ARG_OF_PERICENTER,MEAN_ANOMALY,BSTAR,MEAN_MOTION_DOT,MEAN_MOTION_DDOT,TLE_LINE0,TLE_LINE1,TLE_LINE2,SEMIMAJOR_AXIS,PERIOD,APOGEE,PERIGEE,DECAYED
50837.0,STARLINK-3318,PAYLOAD,2024-07-08 20:28:56,15.0884252,0.0001308,53.2184,22.2933,85.3831,274.7311,0.00014406,2.006e-05,0.0,0 STARLINK-3318,1 50837U 22001AL  24190.85342957  .00002006  00000-0  14406-3 0  9993,2 50837  53.2184  22.2933 0001308  85.3831 274.7311 15.08842520139697,6917.873,95.437,540.643,538.833,0.0
50837.0,STARLINK-3318,PAYLOAD,2024-07-08 22:04:19,15.08847979,0.0001322,53.2188,21.995,84.8948,275.2195,0.00016607,2.357e-05,0.0,0 STARLINK-3318,1 50837U 22001AL  24190.91966550  .00002357  00000-0  16607-3 0  9995,2 50837  53.2188  21.9950 0001322  84.8948 275.2195 15.08847979138503,6917.856,95.437,540.636,538.806,0.0
50837.0,STARLINK-3318,PAYLOAD,2024-07-09 12:22:48,15.08839874,0.0001615,53.2177,19.3183,84.4842,275.6334,6.5888e-05,7.61e-06,0.0,0 STARLINK-3318,1 50837U 22001AL  24191.51583350  .00000761  00000-0  65888-4 0  9998,2 50837  53.2177  19.3183 0001615  84.4842 275.6334 15.08839874139790,6917.881,95.438,540.863,538.629,0.0
50837.0,STARLINK-3318,PAYLOAD,2024-07-09 18:44:20,15.08842071,0.0001429,53.2183,18.1316,84.5342,275.5814,1.6074e-05,-3.2e-07,0.0,0 STARLINK-3318,1 50837U 22001AL  24191.78079302 -.00000032  00000-0  16074-4 0  9999,2 50837  53.2183  18.1316 0001429  84.5342 275.5814 15.08842071138638,6917.874,95.437,540.728,538.75,0.0
50837.0,STARLINK-3318,PAYLOAD,2024-07-10 12:13:35,15.08840089,0.0001598,53.2192,14.8608,84.3204,275.7971,4.0069e-05,3.5e-06,0.0,0 STARLINK-3318,1 50837U 22001AL  24192.50943363  .00000350  00000-0  40069-4 0  9990,2 50837  53.2192  14.8608 0001598  84.3204 275.7971 15.08840089138742,6917.88,95.438,540.851,538.64,0.0
50837.0,STARLINK-3318,PAYLOAD,2024-07-11 12:04:22,15.08836934,0.0001723,53.2195,10.4009,82.2065,277.9123,0.00014222,1.976e-05,0.0,0 STARLINK-3318,1 50837U 22001AL  24193.50303307  .00001976  00000-0  14222-3 0  9995,2 50837  53.2195  10.4009 0001723  82.2065 277.9123 15.08836934138897,6917.89,95.438,540.947,538.563,0.0
50837.0,STARLINK-3318,PAYLOAD,2024-07-11 18:25:54,15.08834284,0.0001546,53.2189,9.2106,87.7915,272.3254,0.00025566,3.783e-05,0.0,0 STARLINK-3318,1 50837U 22001AL  24193.76799262  .00003783  00000-0  25566-3 0  9993,2 50837  53.2189   9.2106 0001546  87.7915 272.3254 15.08834284140131,6917.898,95.438,540.832,538.693,0.0
50837.0,STARLINK-3318,PAYLOAD,2024-07-12 11:55:09,15.08844045,0.0001382,53.2162,5.9347,92.2162,267.8988,-4.1405e-05,-9.47e-06,0.0,0 STARLINK-3318,1 50837U 22001AL  24194.49663263 -.00000947  00000-0 -41405-4 0  9997,2 50837  53.2162   5.9347 0001382  92.2162 267.8988 15.08844045139042,6917.868,95.437,540.689,538.777,0.0
50837.0,STARLINK-3318,PAYLOAD,2024-07-12 18:16:41,15.0884479,0.0001356,53.2161,4.7447,94.3234,265.7913,0.00011853,1.599e-05,0.0,0 STARLINK-3318,1 50837U 22001AL  24194.76158857  .00001599  00000-0  11853-3 0  9990,2 50837  53.2161   4.7447 0001356  94.3234 265.7913 15.08844790139089,6917.866,95.437,540.669,538.793,0.0
50837.0,STARLINK-3318,PAYLOAD,2024-07-13 10:10:33,15.08838803,0.0001295,53.2185,1.7769,88.5023,271.6117,3.2995e-05,2.37e-06,0.0,0 STARLINK-3318,1 50837U 22001AL  24195.42399578  .00000237  00000-0  32995-4 0  9990,2 50837  53.2185   1.7769 0001295  88.5023 271.6117 15.08838803140387,6917.884,95.438,540.645,538.853,0.0
50837.0,STARLINK-3318,PAYLOAD,2024-07-13 14:56:42,15.08838134,0.0001283,53.2182,0.8853,87.6857,272.4282,4.5423e-05,4.35e-06,0.0,0 STARLINK-3318,1 50837U 22001AL  24195.62271622  .00000435  00000-0  45423-4 0  9991,2 50837  53.2182   0.8853 0001283  87.6857 272.4282 15.08838134139219,6917.886,95.438,540.639,538.864,0.0
50837.0,STARLINK-3318,PAYLOAD,2024-07-13 21:18:14,15.08851408,0.0001223,53.2186,359.6925,82.4022,277.7109,0.00012472,1.698e-05,0.0,0 STARLINK-3318,1 50837U 22001AL  24195.88766648  .00001698  00000-0  12472-3 0  9995,2 50837  53.2186 359.6925 0001223  82.4022 277.7109 15.08851408140452,6917.846,95.437,540.557,538.864,0.0
50837.0,STARLINK-3318,PAYLOAD,2024-07-14 03:39:47,15.08845155,0.000107,53.2166,358.5004,65.9081,294.2023,0.00013006,1.783e-05,0.0,0 STARLINK-3318,1 50837U 22001AL  24196.15263041  .00001783  00000-0  13006-3 0  9994,2 50837  53.2166 358.5004 0001070  65.9081 294.2023 15.08845155140492,6917.865,95.437,540.47,538.989,0.0
50837.0,STARLINK-3318,PAYLOAD,2024-07-14 14:47:29,15.088382,0.0001351,53.2186,356.4243,98.4561,261.6585,4.4985e-05,4.28e-06,0.0,0 STARLINK-3318,1 50837U 22001AL  24196.61631728  .00000428  00000-0  44985-4 0  9992,2 50837  53.2186 356.4243 0001351  98.4561 261.6585 15.08838200139360,6917.886,95.438,540.685,538.816,0.0
50837.0,STARLINK-3318,PAYLOAD,2024-07-14 17:58:15,15.0884056,0.0001274,53.2183,355.8315,101.0179,259.0956,7.6313e-05,9.27e-06,0.0,0 STARLINK-3318,1 50837U 22001AL  24196.74879517  .00000927  00000-0  76313-4 0  9990,2 50837  53.2183 355.8315 0001274 101.0179 259.0956 15.08840560139387,6917.879,95.438,540.625,538.862,0.0
50837.0,STARLINK-3318,PAYLOAD,2024-07-15 03:30:34,15.08838685,0.0001203,53.2184,354.0474,97.6927,262.4202,9.4024e-05,1.209e-05,0.0,0 STARLINK-3318,1 50837U 22001AL  24197.14623723  .00001209  00000-0  94024-4 0  9994,2 50837  53.2184 354.0474 0001203  97.6927 262.4202 15.08838685140646,6917.884,95.438,540.582,538.917,0.0
50837.0,STARLINK-3318,PAYLOAD,2024-07-15 14:38:17,15.08830904,0.0001267,53.2184,351.9657,100.2459,259.8676,-1.0462e-06,-3.04e-06,0.0,0 STARLINK-3318,1 50837U 22001AL  24197.60992110 -.00000304  00000-0 -10462-5 0  9996,2 50837  53.2184 351.9657 0001267 100.2459 259.8676 15.08830904139511,6917.908,95.438,540.65,538.897,0.0
50837.0,STARLINK-3318,PAYLOAD,2024-07-15 17:49:02,15.08851991,9.32e-05,53.2174,351.3638,88.2501,271.8598,9.6578e-05,1.25e-05,0.0,0 STARLINK-3318,1 50837U 22001AL  24197.74238985  .00001250  00000-0  96578-4 0  9994,2 50837  53.2174 351.3638 0000932  88.2501 271.8598 15.08851991140736,6917.844,95.437,540.353,539.064,0.0
50837.0,STARLINK-3318,PAYLOAD,2024-07-16 03:21:21,15.08843671,0.0001117,53.2183,349.5793,79.5369,280.5749,5.0668e-05,5.19e-06,0.0,0 STARLINK-3318,1 50837U 22001AL  24198.13983598  .00000519  00000-0  50668-4 0  9992,2 50837  53.2183 349.5793 0001117  79.5369 280.5749 15.08843671140795,6917.869,95.437,540.507,538.961,0.0
50837.0,STARLINK-3318,PAYLOAD,2024-07-16 14:29:03,15.08843014,0.0001244,53.2184,347.5045,92.9308,267.1827,0.00014302,1.989e-05,0.0,0 STARLINK-3318,1 50837U 22001AL  24198.60351526  .00001989  00000-0  14302-3 0  9990,2 50837  53.2184 347.5045 0001244  92.9308 267.1827 15.08843014139660,6917.871,95.437,540.597,538.876,0.0
50837.0,STARLINK-3318,PAYLOAD,2024-07-16 16:04:26,15.08847551,0.000121,53.2187,347.2073,90.1708,269.9423,0.00012329,1.675e-05,0.0,0 STARLINK-3318,1 50837U 22001AL  24198.66975258  .00001675  00000-0  12329-3 0  9999,2 50837  53.2187 347.2073 0001210  90.1708 269.9423 15.08847551139671,6917.857,95.437,540.559,538.885,0.0
50837.0,STARLINK-3318,PAYLOAD,2024-07-17 03:12:09,15.08834212,0.0001736,53.2198,345.123,74.3762,285.7422,9.4579e-05,1.217e-05,0.0,0 STARLINK-3318,1 50837U 22001AL  24199.13344442  .00001217  00000-0  94579-4 0  9997,2 50837  53.2198 345.1230 0001736  74.3762 285.7422 15.08834212140949,6917.898,95.438,540.964,538.562,0.0
50837.0,STARLINK-3318,PAYLOAD,2024-07-17 14:19:52,15.08831555,0.0001788,53.219,343.0419,77.3816,282.7376,6.1654e-05,6.93e-06,0.0,0 STARLINK-3318,1 50837U 22001AL  24199.59713037  .00000693  00000-0  61654-4 0  9992,2 50837  53.2190 343.0419 0001788  77.3816 282.7376 15.08831555139813,6917.906,95.438,541.008,538.534,0.0
50837.0,STARLINK-3318,PAYLOAD,2024-07-17 15:55:15,15.08827664,0.0001212,53.2177,342.7451,74.172,285.9406,3.5386e-05,2.75e-06,0.0,0 STARLINK-3318,1 50837U 22001AL  24199.66337267  .00000275  00000-0  35386-4 0  9996,2 50837  53.2177 342.7451 0001212  74.1720 285.9406 15.08827664141022,6917.918,95.438,540.622,538.945,0.0
50837.0,STARLINK-3318,PAYLOAD,2024-07-18 03:02:56,15.08839553,0.0001302,53.2189,340.6632,81.4193,278.6947,5.6856e-05,6.17e-06,0.0,0 STARLINK-3318,1 50837U 22001AL  24200.12704588  .00000617  00000-0  56856-4 0  9999,2 50837  53.2189 340.6632 0001302  81.4193 278.6947 15.08839553141094,6917.882,95.438,540.647,538.846,0.0
50837.0,STARLINK-3318,PAYLOAD,2024-07-18 14:10:38,15.08843458,0.0001489,53.218,338.5821,77.4208,282.6951,0.00015395,2.163e-05,0.0,0 STARLINK-3318,1 50837U 22001AL  24200.59072545  .00002163  00000-0  15395-3 0  9991,2 50837  53.2180 338.5821 0001489  77.4208 282.6951 15.08843458139961,6917.87,95.437,540.765,538.705,0.0
50837.0,STARLINK-3318,PAYLOAD,2024-07-18 15:46:01,15.0884734,0.0001341,53.2188,338.2837,83.3766,276.7379,0.00027452,4.085e-05,0.0,0 STARLINK-3318,1 50837U 22001AL  24200.65696322  .00004085  00000-0  27452-3 0  9995,2 50837  53.2188 338.2837 0001341  83.3766 276.7379 15.08847340139978,6917.858,95.437,540.651,538.795,0.0
50837.0,STARLINK-3318,PAYLOAD,2024-07-19 12:26:02,15.08845365,0.0001479,53.2186,334.4178,79.1377,280.9782,0.00036187,5.477e-05,0.0,0 STARLINK-3318,1 50837U 22001AL  24201.51808499  .00005477  00000-0  36187-3 0  9992,2 50837  53.2186 334.4178 0001479  79.1377 280.9782 15.08845365141305,6917.864,95.437,540.752,538.706,0.0
50837.0,STARLINK-3318,PAYLOAD,2024-07-19 14:01:25,15.08847251,0.0001602,53.219,334.1219,74.0551,286.0618,0.00028029,4.176e-05,0.0,0 STARLINK-3318,1 50837U 22001AL  24201.58432436  .00004176  00000-0  28029-3 0  9994,2 50837  53.2190 334.1219 0001602  74.0551 286.0618 15.08847251140118,6917.858,95.437,540.831,538.615,0.0
50837.0,STARLINK-3318,PAYLOAD,2024-07-19 15:36:48,15.08850667,0.000139,53.2187,333.8198,84.0445,276.0706,0.00037138,5.629e-05,0.0,0 STARLINK-3318,1 50837U 22001AL  24201.65056174  .00005629  00000-0  37138-3 0  9998,2 50837  53.2187 333.8198 0001390  84.0445 276.0706 15.08850667140126,6917.848,95.437,540.674,538.751,0.0
